NORAD_CAT_ID,OBJECT_NAME,OBJECT_TYPE,EPOCH,MEAN_MOTION,ECCENTRICITY,INCLINATION,RA_OF_ASC_NODE,ARG_OF_PERICENTER,MEAN_ANOMALY,BSTAR,MEAN_MOTION_DOT,MEAN_MOTION_DDOT,TLE_LINE0,TLE_LINE1,TLE_LINE2,SEMIMAJOR_AXIS,PERIOD,APOGEE,PERIGEE,DECAYED
51879.0,STARLINK-3572,PAYLOAD,2023-06-14 06:49:39,15.08841507,9.99e-05,53.2157,165.6223,84.8984,275.2122,-3.2092e-06,-3.39e-06,0.0,0 STARLINK-3572,1 51879U 22022AD  23165.28448166 -.00000339  00000-0 -32092-5 0  9992,2 51879  53.2157 165.6223 0000999  84.8984 275.2122 15.08841507 72377,6917.876,95.437,540.432,539.05,0.0
51879.0,STARLINK-3572,PAYLOAD,2023-06-15 06:40:26,15.08836064,9.91e-05,53.2157,161.1621,83.7267,276.3838,-2.4236e-06,-3.26e-06,0.0,0 STARLINK-3572,1 51879U 22022AD  23166.27808598 -.00000326  00000-0 -24236-5 0  9998,2 51879  53.2157 161.1621 0000991  83.7267 276.3838 15.08836064 72529,6917.892,95.438,540.443,539.072,0.0
51879.0,STARLINK-3572,PAYLOAD,2023-06-15 16:12:45,15.08836008,9.99e-05,53.2158,159.3782,83.4624,276.6482,1.3674e-05,-7e-07,0.0,0 STARLINK-3572,1 51879U 22022AD  23166.67552641 -.00000070  00000-0  13674-4 0  9995,2 51879  53.2158 159.3782 0000999  83.4624 276.6482 15.08836008 72581,6917.893,95.438,540.449,539.066,0.0
51879.0,STARLINK-3572,PAYLOAD,2023-06-16 06:31:13,15.08839761,0.0001017,53.2158,156.7021,83.7769,276.3339,5.2438e-05,5.47e-06,0.0,0 STARLINK-3572,1 51879U 22022AD  23167.27168375  .00000547  00000-0  52438-4 0  9998,2 51879  53.2158 156.7021 0001017  83.7769 276.3339 15.08839761 72670,6917.881,95.438,540.45,539.043,0.0
51879.0,STARLINK-3572,PAYLOAD,2023-06-16 16:03:32,15.08838567,0.0001015,53.2156,154.9179,82.6,277.5107,4.5699e-05,4.4e-06,0.0,0 STARLINK-3572,1 51879U 22022AD  23167.66912495  .00000440  00000-0  45699-4 0  9994,2 51879  53.2156 154.9179 0001015  82.6000 277.5107 15.08838567 72732,6917.885,95.438,540.452,539.048,0.0
51879.0,STARLINK-3572,PAYLOAD,2023-06-17 06:22:00,15.08839437,0.000104,53.2157,152.2415,85.0338,275.0773,6.4043e-05,7.32e-06,0.0,0 STARLINK-3572,1 51879U 22022AD  23168.26528444  .00000732  00000-0  64043-4 0  9996,2 51879  53.2157 152.2415 0001040  85.0338 275.0773 15.08839437 72825,6917.882,95.438,540.467,539.028,0.0
51879.0,STARLINK-3572,PAYLOAD,2023-06-17 15:54:19,15.08835668,0.0001032,53.2156,150.4574,86.0004,274.1106,2.4256e-05,9.8e-07,0.0,0 STARLINK-3572,1 51879U 22022AD  23168.66272851  .00000098  00000-0  24256-4 0  9995,2 51879  53.2156 150.4574 0001032  86.0004 274.1106 15.08835668 72880,6917.894,95.438,540.473,539.045,0.0
51879.0,STARLINK-3572,PAYLOAD,2023-06-18 04:37:25,15.08834917,0.0001097,53.2156,148.0782,87.5489,272.5629,-2.6771e-05,-7.14e-06,0.0,0 STARLINK-3572,1 51879U 22022AD  23169.19265261 -.00000714  00000-0 -26771-4 0  9992,2 51879  53.2156 148.0782 0001097  87.5489 272.5629 15.08834917 72965,6917.896,95.438,540.52,539.002,0.0
51879.0,STARLINK-3572,PAYLOAD,2023-06-18 15:45:07,15.08835901,0.0001161,53.2162,145.9968,86.2027,273.9098,2.5328e-06,-2.48e-06,0.0,0 STARLINK-3572,1 51879U 22022AD  23169.65633218 -.00000248  00000-0  25328-5 0  9993,2 51879  53.2162 145.9968 0001161  86.2027 273.9098 15.08835901 73038,6917.893,95.438,540.561,538.955,0.0
51879.0,STARLINK-3572,PAYLOAD,2023-06-18 22:06:39,15.08836444,0.000122,53.2163,144.8068,86.9593,273.1539,3.7687e-06,-2.28e-06,0.0,0 STARLINK-3572,1 51879U 22022AD  23169.92129256 -.00000228  00000-0  37687-5 0  9994,2 51879  53.2163 144.8068 0001220  86.9593 273.1539 15.08836444 73078,6917.891,95.438,540.6,538.912,0.0
51879.0,STARLINK-3572,PAYLOAD,2023-06-19 07:38:58,15.08840401,0.0001201,53.216,143.0227,86.8023,273.3106,3.2587e-05,2.31e-06,0.0,0 STARLINK-3572,1 51879U 22022AD  23170.31872928  .00000231  00000-0  32587-4 0  9996,2 51879  53.2160 143.0227 0001201  86.8023 273.3106 15.08840401 73136,6917.879,95.438,540.575,538.913,0.0
51879.0,STARLINK-3572,PAYLOAD,2023-06-19 15:35:53,15.08840458,0.0001192,53.216,141.5364,86.0048,274.108,5.5459e-05,5.95e-06,0.0,0 STARLINK-3572,1 51879U 22022AD  23170.64992854  .00000595  00000-0  55459-4 0  9999,2 51879  53.2160 141.5364 0001192  86.0048 274.1080 15.08840458 73186,6917.879,95.438,540.569,538.919,0.0
51879.0,STARLINK-3572,PAYLOAD,2023-06-20 04:18:58,15.08839707,0.0001207,53.2158,139.1571,86.9231,273.1899,9.6854e-05,1.254e-05,0.0,0 STARLINK-3572,1 51879U 22022AD  23171.17984781  .00001254  00000-0  96854-4 0  9995,2 51879  53.2158 139.1571 0001207  86.9231 273.1899 15.08839707 73267,6917.881,95.438,540.581,538.911,0.0
51879.0,STARLINK-3572,PAYLOAD,2023-06-20 07:29:45,15.08841425,0.0001213,53.2158,138.5624,86.5684,273.5447,8.8328e-05,1.118e-05,0.0,0 STARLINK-3572,1 51879U 22022AD  23171.31232698  .00001118  00000-0  88328-4 0  9990,2 51879  53.2158 138.5624 0001213  86.5684 273.5447 15.08841425 73289,6917.876,95.437,540.58,538.902,0.0
51879.0,STARLINK-3572,PAYLOAD,2023-06-21 04:09:45,15.08843089,0.0001219,53.2163,134.6942,100.1342,259.9788,1.9701e-05,2.6e-07,0.0,0 STARLINK-3572,1 51879U 22022AD  23172.17344781  .00000026  00000-0  19701-4 0  9998,2 51879  53.2163 134.6942 0001219 100.1342 259.9788 15.08843089 73414,6917.871,95.437,540.579,538.893,0.0
51879.0,STARLINK-3572,PAYLOAD,2023-06-22 02:25:10,15.08837462,0.0001277,53.2162,130.5307,104.9102,255.2031,-3.2415e-05,-8.04e-06,0.0,0 STARLINK-3572,1 51879U 22022AD  23173.10081354 -.00000804  00000-0 -32415-4 0  9999,2 51879  53.2162 130.5307 0001277 104.9102 255.2031 15.08837462 73556,6917.888,95.438,540.637,538.87,0.0
51879.0,STARLINK-3572,PAYLOAD,2023-06-23 02:15:56,15.08843156,0.0001118,53.2166,126.0726,91.7491,268.3629,4.0461e-05,3.56e-06,0.0,0 STARLINK-3572,1 51879U 22022AD  23174.09440906  .00000356  00000-0  40461-4 0  9990,2 51879  53.2166 126.0726 0001118  91.7491 268.3629 15.08843156 73705,6917.871,95.437,540.509,538.962,0.0
51879.0,STARLINK-3572,PAYLOAD,2023-06-24 02:06:45,15.08829163,0.0001314,53.2169,121.6123,87.0319,273.0823,-1.4163e-05,-5.13e-06,0.0,0 STARLINK-3572,1 51879U 22022AD  23175.08802207 -.00000513  00000-0 -14163-4 0  9993,2 51879  53.2169 121.6123 0001314  87.0319 273.0823 15.08829163 73852,6917.914,95.438,540.688,538.869,0.0
51879.0,STARLINK-3572,PAYLOAD,2023-06-24 13:14:26,15.08835888,0.0001262,53.2172,119.5331,88.6488,271.4648,3.8401e-05,3.23e-06,0.0,0 STARLINK-3572,1 51879U 22022AD  23175.55169791  .00000323  00000-0  38401-4 0  9997,2 51879  53.2172 119.5331 0001262  88.6488 271.4648 15.08835888 73925,6917.893,95.438,540.631,538.885,0.0
51879.0,STARLINK-3572,PAYLOAD,2023-06-25 06:43:40,15.08842579,0.0001254,53.2164,116.2607,92.9928,267.1207,8.2542e-05,1.026e-05,0.0,0 STARLINK-3572,1 51879U 22022AD  23176.28033321  .00001026  00000-0  82542-4 0  9993,2 51879  53.2164 116.2607 0001254  92.9928 267.1207 15.08842579 74035,6917.873,95.437,540.605,538.87,0.0
51879.0,STARLINK-3572,PAYLOAD,2023-06-26 12:56:00,15.0883615,0.0001391,53.218,110.611,81.5066,278.6083,2.1284e-05,5.1e-07,0.0,0 STARLINK-3572,1 51879U 22022AD  23177.53890007  .00000051  00000-0  21284-4 0  9997,2 51879  53.2180 110.6110 0001391  81.5066 278.6083 15.08836150 74227,6917.892,95.438,540.719,538.795,0.0
51879.0,STARLINK-3572,PAYLOAD,2023-06-28 04:40:38,15.08851159,0.0001314,53.2172,103.1753,93.8994,266.2149,4.5073e-05,4.3e-06,0.0,0 STARLINK-3572,1 51879U 22022AD  23179.19489145  .00000430  00000-0  45073-4 0  9991,2 51879  53.2172 103.1753 0001314  93.8994 266.2149 15.08851159 74478,6917.846,95.437,540.62,538.802,0.0
51879.0,STARLINK-3572,PAYLOAD,2023-06-29 04:31:26,15.08834902,0.0001322,53.2173,98.7148,86.0764,274.0379,3.8264e-05,3.21e-06,0.0,0 STARLINK-3572,1 51879U 22022AD  23180.18850470  .00000321  00000-0  38264-4 0  9998,2 51879  53.2173  98.7148 0001322  86.0764 274.0379 15.08834902 74620,6917.896,95.438,540.676,538.846,0.0
51879.0,STARLINK-3572,PAYLOAD,2023-06-30 10:43:46,15.08840224,0.0001225,53.2167,93.0653,81.7517,278.3614,-4.5341e-05,-1.009e-05,0.0,0 STARLINK-3572,1 51879U 22022AD  23181.44706323 -.00001009  00000-0 -45341-4 0  9995,2 51879  53.2167  93.0653 0001225  81.7517 278.3614 15.08840224 74816,6917.88,95.438,540.592,538.897,0.0
51879.0,STARLINK-3572,PAYLOAD,2023-07-01 01:02:15,15.08833976,0.0001234,53.2171,90.3912,88.8605,271.2528,-4.0667e-06,-3.53e-06,0.0,0 STARLINK-3572,1 51879U 22022AD  23182.04322981 -.00000353  00000-0 -40667-5 0  9994,2 51879  53.2171  90.3912 0001234  88.8605 271.2528 15.08833976 74907,6917.899,95.438,540.617,538.91,0.0
51879.0,STARLINK-3572,PAYLOAD,2023-07-02 10:25:20,15.08840053,0.000123,53.2175,84.1469,91.8656,268.2477,3.9057e-06,-2.26e-06,0.0,0 STARLINK-3572,1 51879U 22022AD  23183.43426945 -.00000226  00000-0  39057-5 0  9992,2 51879  53.2175  84.1469 0001230  91.8656 268.2477 15.08840053 75112,6917.88,95.438,540.596,538.894,0.0
51879.0,STARLINK-3572,PAYLOAD,2023-07-04 02:09:59,15.08841728,0.0001252,53.2173,76.711,87.144,272.9696,1.783e-05,-4e-08,0.0,0 STARLINK-3572,1 51879U 22022AD  23185.09027078 -.00000004  00000-0  17830-4 0  9998,2 51879  53.2173  76.7110 0001252  87.1440 272.9696 15.08841728 75365,6917.875,95.437,540.606,538.874,0.0
51879.0,STARLINK-3572,PAYLOAD,2023-07-05 09:57:41,15.0884477,0.0001291,53.2173,70.7639,86.7208,273.3932,-2.929e-06,-3.35e-06,0.0,0 STARLINK-3572,1 51879U 22022AD  23186.41506768 -.00000335  00000-0 -29290-5 0  9995,2 51879  53.2173  70.7639 0001291  86.7208 273.3932 15.08844770 75565,6917.866,95.437,540.624,538.838,0.0
51879.0,STARLINK-3572,PAYLOAD,2023-07-06 16:10:01,15.08842986,0.0001262,53.2173,65.1129,93.0893,267.0244,1.1563e-05,-1.04e-06,0.0,0 STARLINK-3572,1 51879U 22022AD  23187.67362836 -.00000104  00000-0  11563-4 0  9996,2 51879  53.2173  65.1129 0001262  93.0893 267.0244 15.08842986 75750,6917.871,95.437,540.609,538.863,0.0
51879.0,STARLINK-3572,PAYLOAD,2023-07-07 22:22:21,15.08839015,0.0001159,53.2174,59.4634,83.4167,276.6957,2.6999e-05,1.42e-06,0.0,0 STARLINK-3572,1 51879U 22022AD  23188.93219028  .00000142  00000-0  26999-4 0  9990,2 51879  53.2174  59.4634 0001159  83.4167 276.6957 15.08839015 75947,6917.883,95.438,540.55,538.947,0.0
